AEOLUS                  
1 43600U 18066A   21080.01568394  .00054431  00000-0  21336-3 0  9996
2 43600  96.7207  88.2113 0007173  98.5693 261.6393 15.86789665149226
BEIDOU-3 M11            
1 43602U 18067A   21080.01694009  .00000053  00000-0  00000-0 0  9995
2 43602  54.5165 246.1964 0007363   7.0972 221.4767  1.86231583 17474
BEIDOU-3 M12            
1 43603U 18067B   21080.36119494  .00000053  00000-0  00000-0 0  9994
2 43603  54.5120 246.1525 0004488   1.8075   8.0542  1.86231527 17502
HAIYANG-1C              
1 43609U 18068A   21080.76077119  .00000008  00000-0  18430-4 0  9992
2 43609  98.5014 158.0557 0013414  41.5224 318.6972 14.34190848132827
TELSTAR 18V (APSTAR 5C) 
1 43611U 18069A   21080.33730015 -.00000295  00000-0  00000-0 0  9999
2 43611   0.0218 164.3889 0002062 192.6824  81.4325  1.00268087  9430
ICESAT-2                
1 43613U 18070A   21080.40328859  .00002527  00000-0  91681-4 0  9998
2 43613  91.9992 136.0128 0002563  86.6702 273.4840 15.28269710140187
SURFSAT                 
1 43614U 18070B   21080.27143624  .00006046  00000-0  14515-3 0  9999
2 43614  93.0235 269.3408 0013963 356.8501   3.2664 15.41286307141086
CP7 (DAVE)              
1 43615U 18070C   21080.07823544  .00005762  00000-0  13953-3 0  9993
2 43615  93.0237 269.2277 0014182 357.3343   2.7834 15.41025149141040
ELFIN-B                 
1 43616U 18070D   21080.05900913  .00010474  00000-0  23393-3 0  9993
2 43616  93.0197 269.3148 0014047 356.1108   4.0037 15.43417850141136
ELFIN-A                 
1 43617U 18070E   21080.04321505  .00010513  00000-0  23182-3 0  9997
2 43617  93.0248 270.0710 0013277 353.2216   6.8859 15.43807650141144
SSTL S1-4               
1 43618U 18071A   21080.74587735  .00000720  00000-0  71190-4 0  9997
2 43618  97.7317 338.5689 0015091  74.6935 285.5954 14.94906858137003
NOVASAR 1               
1 43619U 18071B   21080.73619420  .00000380  00000-0  40005-4 0  9997
2 43619  97.7325 338.5719 0007996  75.8251 284.3884 14.94919997136990
BEIDOU-3 M13            
1 43622U 18072A   21080.45956670  .00000015  00000-0  00000-0 0  9994
2 43622  55.2439 126.5902 0007604 282.4010 183.6536  1.86231518 17012
BEIDOU-3 M14            
1 43623U 18072B   21080.32644353  .00000014  00000-0  00000-0 0  9992
2 43623  55.2451 126.5861 0005788 302.8142 164.2232  1.86231506 17010
AZERSPACE 2 (IS-38)     
1 43632U 18074A   21080.84563219  .00000136  00000-0  00000+0 0  9996
2 43632   0.0206 190.7754 0001473 156.2001 182.1334  1.00267786  9290
HORIZONS 3E             
1 43633U 18074B   21080.66497065 -.00000032  00000-0  00000+0 0  9998
2 43633   0.0332 352.7644 0000863 315.4345 279.5539  1.00272068  9131
CENTISPACE-1 S1         
1 43636U 18075A   21080.78327542  .00000126  00000-0  38207-4 0  9995
2 43636  98.1163 152.5048 0008711 351.1730   8.9302 14.56798569131731
1998-067PN              
1 43638U 98067PN  21080.79144605  .00050150  00000-0  32210-3 0  9993
2 43638  51.6332 338.8915 0001118  60.2833 299.8278 15.75714011140200
STARS-ME                
1 43640U 98067PQ  21080.72462293  .00092924  00000-0  43069-3 0  9994
2 43640  51.6307 329.2875 0000292 120.2843 239.8188 15.82683629140330
SAOCOM 1A               
1 43641U 18076A   21080.75198073  .00000039  00000-0  11484-4 0  9995
2 43641  97.8888 268.9215 0001432  83.2276 276.9109 14.82153744132671
YAOGAN 32 A             
1 43642U 18077A   21080.77198975  .00000081  00000-0  26831-4 0  9999
2 43642  98.1517 138.2059 0001581  77.6435 282.4930 14.59357041130479
YAOGAN 32 B             
1 43643U 18077B   21080.77185525  .00000079  00000-0  26267-4 0  9997
2 43643  98.1519 138.1849 0001572  78.6057 281.5309 14.59356615130475
BEIDOU-3 M15            
1 43647U 18078A   21080.16481679 -.00000094  00000-0  10000-3 0  9999
2 43647  55.2126   6.1349 0007741 350.1288 263.7676  1.86233006 16515
BEIDOU-3 M16            
1 43648U 18078B   21079.82497263 -.00000089  00000-0  29436+2 0  9992
2 43648  55.2080   6.1532 0005557 356.4594 298.1972  1.86232406 16526
AEHF-4 (USA 288)        
1 43651U 18079A   21080.31430809  .00000128  00000-0  00000-0 0  9994
2 43651   3.3160 312.0129 0002614  78.6865 111.4810  1.00267940  9100
HAIYANG-2B              
1 43655U 18081A   21080.80446659 -.00000040  00000-0  44475-5 0  9998
2 43655  99.3486  90.6428 0000484   2.8549 357.2598 13.79300136121159
COSMOS 2528             
1 43657U 18082A   21080.84765181 -.00000059  00000-0  11915-4 0  9991
2 43657  67.1496  47.2524 0006764 281.1766  78.8560 13.96512866122745
CFOSAT                  
1 43662U 18083A   21080.72507684  .00000626  00000-0  35662-4 0  9991
2 43662  97.4599 106.9880 0001401  91.6856 359.9292 15.16349802132553
CUBEBEL-1 (BSUSAT-1)    
1 43666U 18083E   21080.71926222  .00001483  00000-0  73853-4 0  9993
2 43666  97.4650 110.1655 0016293 112.6296  23.2494 15.19039848132698
CHANGSHAGAOXIN (TY 4-01)
1 43669U 18083H   21080.76332944  .00000977  00000-0  51455-4 0  9994
2 43669  97.4550 107.5517 0012331 106.7712 342.4993 15.17884520132584
GOSAT 2                 
1 43672U 18084B   21080.83414520  .00000378  00000-0  51461-4 0  9990
2 43672  97.8787 194.0107 0001389  98.3814 261.7557 14.84235071129747
KHALIFASAT              
1 43676U 18084F   21080.80286762  .00000121  00000-0  18828-4 0  9992
2 43676  97.8941 201.0084 0014993 311.2880  48.7039 14.89000901130120
TEN-KOH                 
1 43677U 18084G   21080.30682146  .00000198  00000-0  26183-4 0  9991
2 43677  97.9063 203.1918 0015179 329.7172  30.3167 14.90420476130170
DIWATA-2B               
1 43678U 18084H   21080.78374553  .00000536  00000-0  58929-4 0  9993
2 43678  97.9090 205.6847 0009651 349.8802  10.2220 14.91724691130365
STARS-AO                
1 43679U 18084J   21080.33478705  .00000316  00000-0  36556-4 0  9997
2 43679  97.9135 206.3113 0008878 358.4996   1.6195 14.92436037130348
AUTCUBE 2               
1 43681U 18084K   21080.80927364  .00000457  00000-0  50739-4 0  9997
2 43681  97.9102 205.9925 0009024 349.9618  10.1419 14.92025155130340
BEIDOU-3 G1             
1 43683U 18085A   21080.58743775 -.00000280  00000-0  00000-0 0  9994
2 43683   1.2051 237.1700 0002825  52.4559 241.1921  1.00274476  8876
COSMOS 2529 [GLONASS-M] 
1 43687U 18086A   21080.31569220  .00000074  00000-0  00000-0 0  9991
2 43687  64.4682 257.6710 0007572 278.8457 266.7129  2.13102044 18504
METOP-C                 
1 43689U 18087A   21080.77368651 -.00000010  00000-0  15594-4 0  9998
2 43689  98.6969 142.4915 0001332 263.2734  96.8292 14.21494085122998
CICERO 10               
1 43690U 18088A   21079.96353420  .00001592  00000-0  69932-4 0  9998
2 43690  85.0345 256.0266 0015352  23.5316 336.6624 15.20953986130778
NABEO-1 & KICK STAGE    
1 43692U 18088C   21080.22572091  .00003271  00000-0  14169-3 0  9995
2 43692  85.0306 254.9916 0016147   2.4138 357.7179 15.21874939130812
IRVINE01                
1 43693U 18088D   21079.91760233  .00005540  00000-0  22116-3 0  9999
2 43693  85.0318 253.7582 0016606 359.6000   0.5227 15.24786722130943
PROXIMA I               
1 43694U 18088E   21080.23105185  .00001790  00000-0  74845-4 0  9996
2 43694  85.0289 253.6828 0018367 352.0819   8.0130 15.22680843130956
LEMUR-2-ZUPANSKI        
1 43695U 18088F   21079.94401077  .00003142  00000-0  13418-3 0  9993
2 43695  85.0287 254.6317 0017236  16.6352 343.5452 15.22322836130823
PROXIMA II              
1 43696U 18088G   21079.96633333  .00001762  00000-0  73616-4 0  9991
2 43696  85.0290 253.8654 0018455 352.9836   7.1145 15.22678859130900
LEMUR-2-CHANUSIAK       
1 43697U 18088H   21080.23207692  .00003440  00000-0  14360-3 0  9994
2 43697  85.0349 254.4832 0015108 356.2944   3.8184 15.23157860130945
GSAT-29                 
1 43698U 18089A   21080.23313086  .00000084  00000-0  00000-0 0  9995
2 43698   0.0316  97.3237 0001690 218.7654   1.8372  1.00271188  8593
ES'HAIL 2               
1 43700U 18090A   21080.82132609  .00000143  00000-0  00000+0 0  9991
2 43700   0.0128 131.5852 0002361 259.7248 109.7104  1.00274569  8735
BEIDOU-3 M17            
1 43706U 18093A   21080.65235377  .00000053  00000-0  00000+0 0  9997
2 43706  54.5196 247.4605 0007540 276.7812 109.1310  1.86231736 15894
BEIDOU-3 M18            
1 43707U 18093B   21080.82923259  .00000053  00000-0  00000+0 0  9990
2 43707  54.5202 247.4456 0006948 308.9668 286.3064  1.86231970 15899
TIANZHI 1               
1 43710U 18094A   21080.73335174  .00000472  00000-0  22412-4 0  9999
2 43710  97.4062  90.6959 0014895 143.7547 303.5986 15.23960287129842
SHIYAN 6 (SY-6)         
1 43711U 18094B   21080.86895896  .00000709  00000-0  35611-4 0  9994
2 43711  97.4141  87.1339 0013052 152.1918 208.0018 15.20404572129600
TIANPING 1A             
1 43712U 18094C   21080.78054664  .00001186  00000-0  50968-4 0  9998
2 43712  97.4061  90.9390 0014340 139.7751 305.9212 15.24553447129869
JIADING 1               
1 43713U 18094D   21080.71695868  .00000643  00000-0  29052-4 0  9996
2 43713  97.4052  90.9631 0015060 144.5456 304.4226 15.24441679129855
TIANPING 1B             
1 43714U 18094E   21080.72403043  .00000704  00000-0  31834-4 0  9999
2 43714  97.4063  90.7430 0013574 142.0365 306.0720 15.24122921129845
MOHAMMED VI-B           
1 43717U 18095A   21080.73832136  .00000092  00000-0  20191-4 0  9997
2 43717  97.9508 154.5489 0001363  79.8300 280.3052 14.77076615125729
HYSIS                   
1 43719U 18096A   21080.73634381  .00000117  00000-0  22873-4 0  9999
2 43719  97.8680 148.4514 0006110  93.3694 266.8206 14.78600231124642
HSAT                    
1 43720U 18096B   21080.24016066  .00008793  00000-0  29590-3 0  9991
2 43720  97.3950 159.4501 0013948 215.5670 144.4643 15.30933447128722
FACSAT-1                
1 43721U 18096C   21080.75153720  .00002243  00000-0  83591-4 0  9993
2 43721  97.3904 158.5655 0015921 217.3426 260.4138 15.28403595128725
